[{"OBJECT_NAME":"GUANGCHUAN 02","OBJECT_ID":"2024-221B","EPOCH":"2026-03-09T22:15:41.335200","MEAN_MOTION":15.16931464,"ECCENTRICITY":0.00066009,"INCLINATION":49.9417,"RA_OF_ASC_NODE":285.1157,"ARG_OF_PERICENTER":306.8917,"MEAN_ANOMALY":53.1429,"EPHEMERIS_TYPE":0,"CLASSIFICATION_TYPE":"U","NORAD_CAT_ID":62112,"ELEMENT_SET_NO":999,"REV_AT_EPOCH":7113,"BSTAR":0.00030203163,"MEAN_MOTION_DOT":5.737e-5,"MEAN_MOTION_DDOT":0},{"OBJECT_NAME":"HAWK-12B","OBJECT_ID":"2025-138B","EPOCH":"2026-03-09T22:55:04.503936","MEAN_MOTION":15.17351346,"ECCENTRICITY":0.00148402,"INCLINATION":97.4491,"RA_OF_ASC_NODE":73.6322,"ARG_OF_PERICENTER":119.8702,"MEAN_ANOMALY":240.4008,"EPHEMERIS_TYPE":0,"CLASSIFICATION_TYPE":"U","NORAD_CAT_ID":64622,"ELEMENT_SET_NO":999,"REV_AT_EPOCH":3881,"BSTAR":0.00030366166,"MEAN_MOTION_DOT":6.011e-5,"MEAN_MOTION_DDOT":0}]
